{"type": "FeatureCollection", "features": [ {"type": "Feature", "properties": {"norad_id": 30196, "name": "FENGYUN 1C DEB", "group": "fengyun-1c-debris", "lat": 33.58713788950253, "lon": 87.7313467698817, "alt_km": 742.991037165224, "timestamp": "2025-12-27T06:41:31.201071+00:00", "meta": {"OBJECT_NAME": "FENGYUN 1C DEB", "OBJECT_ID": "1999-025VD", "EPOCH": "2025-12-26T17:46:29.999136", "MEAN_MOTION": 14.25851704, "ECCENTRICITY": 0.00863549, "INCLINATION": 98.6394, "RA_OF_ASC_NODE": 92.9955, "ARG_OF_PERICENTER": 22.707, "MEAN_ANOMALY": 130.0998, "EPHEMERIS_TYPE": 0, "CLASSIFICATION_TYPE": "U", "NORAD_CAT_ID": 30196, "ELEMENT_SET_NO": 999, "REV_AT_EPOCH": 98564, "BSTAR": 5.8320852e-05, "MEAN_MOTION_DOT": 1.01e-06, "MEAN_MOTION_DDOT": 0}, "tle": {"line1": "1 30196U 99025VD  25360.74062499  .00000101  00000+0  58321-4 0  9995", "line2": "2 30196  98.6394  92.9955 0086354  22.7070 130.0998 14.25851704985642"}}, "geometry": {"type": "Point", "coordinates": [87.7313467698817, 33.58713788950253]}}, {"type": "Feature", "properties": {"norad_id": 30197, "name": "FENGYUN 1C DEB", "group": "fengyun-1c-debris", "lat": 65.46880864941227, "lon": 127.37635448129184, "alt_km": 739.4145841357786, "timestamp": "2025-12-27T06:41:31.201081+00:00", "meta": {"OBJECT_NAME": "FENGYUN 1C DEB", "OBJECT_ID": "1999-025VE", "EPOCH": "2025-12-26T18:43:04.205856", "MEAN_MOTION": 14.37252304, "ECCENTRICITY": 0.00574862, "INCLINATION": 98.9395, "RA_OF_ASC_NODE": 286.6828, "ARG_OF_PERICENTER": 172.6821, "MEAN_ANOMALY": 240.7535, "EPHEMERIS_TYPE": 0, "CLASSIFICATION_TYPE": "U", "NORAD_CAT_ID": 30197, "ELEMENT_SET_NO": 999, "REV_AT_EPOCH": 98688, "BSTAR": 0.00075740293, "MEAN_MOTION_DOT": 2.253e-05, "MEAN_MOTION_DDOT": 0}, "tle": {"line1": "1 30197U 99025VE  25360.77990979  .00002253  00000+0  75740-3 0  9995", "line2": "2 30197  98.9395 286.6828 0057486 172.6821 240.7535 14.37252304986888"}}, "geometry": {"type": "Point", "coordinates": [127.37635448129184, 65.46880864941227]}}, {"type": "Feature", "properties": {"norad_id": 30198, "name": "FENGYUN 1C DEB", "group": "fengyun-1c-debris", "lat": 36.23876632383145, "lon": 126.11991321265428, "alt_km": 755.4989010193094, "timestamp": "2025-12-27T06:41:31.201091+00:00", "meta": {"OBJECT_NAME": "FENGYUN 1C DEB", "OBJECT_ID": "1999-025VF", "EPOCH": "2025-12-26T07:37:22.861344", "MEAN_MOTION": 14.50565599, "ECCENTRICITY": 0.0106859, "INCLINATION": 98.4482, "RA_OF_ASC_NODE": 131.409, "ARG_OF_PERICENTER": 157.1253, "MEAN_ANOMALY": 264.1999, "EPHEMERIS_TYPE": 0, "CLASSIFICATION_TYPE": "U", "NORAD_CAT_ID": 30198, "ELEMENT_SET_NO": 999, "REV_AT_EPOCH": 98704, "BSTAR": 0.0020041, "MEAN_MOTION_DOT": 8.413e-05, "MEAN_MOTION_DDOT": 0}, "tle": {"line1": "1 30198U 99025VF  25360.31762571  .00008413  00000+0  20041-2 0  9998", "line2": "2 30198  98.4482 131.4090 0106859 157.1253 264.1999 14.50565599987046"}}, "geometry": {"type": "Point", "coordinates": [126.11991321265428, 36.23876632383145]}}, {"type": "Feature", "properties": {"norad_id": 30199, "name": "FENGYUN 1C DEB", "group": "fengyun-1c-debris", "lat": 27.66430688025357, "lon": -150.89319783281672, "alt_km": 783.0035121978462, "timestamp": "2025-12-27T06:41:31.201101+00:00", "meta": {"OBJECT_NAME": "FENGYUN 1C DEB", "OBJECT_ID": "1999-025VG", "EPOCH": "2025-12-26T13:52:27.966144", "MEAN_MOTION": 14.38593225, "ECCENTRICITY": 0.0077761, "INCLINATION": 98.3841, "RA_OF_ASC_NODE": 23.9883, "ARG_OF_PERICENTER": 266.6981, "MEAN_ANOMALY": 219.0862, "EPHEMERIS_TYPE": 0, "CLASSIFICATION_TYPE": "U", "NORAD_CAT_ID": 30199, "ELEMENT_SET_NO": 999, "REV_AT_EPOCH": 98609, "BSTAR": 0.00096404, "MEAN_MOTION_DOT": 3.013e-05, "MEAN_MOTION_DDOT": 0}, "tle": {"line1": "1 30199U 99025VG  25360.57810146  .00003013  00000+0  96404-3 0  9997", "line2": "2 30199  98.3841  23.9883 0077761 266.6981 219.0862 14.38593225986098"}}, "geometry": {"type": "Point", "coordinates": [-150.89319783281672, 27.66430688025357]}}, {"type": "Feature", "properties": {"norad_id": 30200, "name": "FENGYUN 1C DEB", "group": "fengyun-1c-debris", "lat": -5.549411547384161, "lon": -162.58055914854486, "alt_km": 772.5422579495134, "timestamp": "2025-12-27T06:41:31.201112+00:00", "meta": {"OBJECT_NAME": "FENGYUN 1C DEB", "OBJECT_ID": "1999-025VH", "EPOCH": "2025-12-26T12:08:45.980736", "MEAN_MOTION": 14.22286224, "ECCENTRICITY": 0.0147471, "INCLINATION": 99.1125, "RA_OF_ASC_NODE": 195.7273, "ARG_OF_PERICENTER": 60.1539, "MEAN_ANOMALY": 301.4202, "EPHEMERIS_TYPE": 0, "CLASSIFICATION_TYPE": "U", "NORAD_CAT_ID": 30200, "ELEMENT_SET_NO": 999, "REV_AT_EPOCH": 98178, "BSTAR": 0.00013934, "MEAN_MOTION_DOT": 2.99e-06, "MEAN_MOTION_DDOT": 0}, "tle": {"line1": "1 30200U 99025VH  25360.50608774  .00000299  00000+0  13934-3 0  9995", "line2": "2 30200  99.1125 195.7273 0147471  60.1539 301.4202 14.22286224981784"}}, "geometry": {"type": "Point", "coordinates": [-162.58055914854486, -5.549411547384161]}}, {"type": "Feature", "properties": {"norad_id": 30201, "name": "FENGYUN 1C DEB", "group": "fengyun-1c-debris", "lat": -56.530820173303276, "lon": 150.98270072421454, "alt_km": 804.6945010214076, "timestamp": "2025-12-27T06:41:31.201122+00:00", "meta": {"OBJECT_NAME": "FENGYUN 1C DEB", "OBJECT_ID": "1999-025VJ", "EPOCH": "2025-12-26T20:50:12.664032", "MEAN_MOTION": 14.22970903, "ECCENTRICITY": 0.00287936, "INCLINATION": 99.4017, "RA_OF_ASC_NODE": 136.0307, "ARG_OF_PERICENTER": 271.7737, "MEAN_ANOMALY": 88.0141, "EPHEMERIS_TYPE": 0, "CLASSIFICATION_TYPE": "U", "NORAD_CAT_ID": 30201, "ELEMENT_SET_NO": 999, "REV_AT_EPOCH": 98028, "BSTAR": 0.00053904317, "MEAN_MOTION_DOT": 1.168e-05, "MEAN_MOTION_DDOT": 0}, "tle": {"line1": "1 30201U 99025VJ  25360.86820213  .00001168  00000+0  53904-3 0  9996", "line2": "2 30201  99.4017 136.0307 0028793 271.7737  88.0141 14.22970903980287"}}, "geometry": {"type": "Point", "coordinates": [150.98270072421454, -56.530820173303276]}}, {"type": "Feature", "properties": {"norad_id": 30202, "name": "FENGYUN 1C DEB", "group": "fengyun-1c-debris", "lat": 23.650897733647465, "lon": 95.17652469554302, "alt_km": 690.091587988446, "timestamp": "2025-12-27T06:41:31.201132+00:00", "meta": {"OBJECT_NAME": "FENGYUN 1C DEB", "OBJECT_ID": "1999-025VK", "EPOCH": "2025-12-26T05:47:07.503648", "MEAN_MOTION": 14.52587098, "ECCENTRICITY": 0.0038021, "INCLINATION": 98.6394, "RA_OF_ASC_NODE": 97.9263, "ARG_OF_PERICENTER": 16.6305, "MEAN_ANOMALY": 343.6127, "EPHEMERIS_TYPE": 0, "CLASSIFICATION_TYPE": "U", "NORAD_CAT_ID": 30202, "ELEMENT_SET_NO": 999, "REV_AT_EPOCH": 98485, "BSTAR": 0.0020479, "MEAN_MOTION_DOT": 8.416e-05, "MEAN_MOTION_DDOT": 0}, "tle": {"line1": "1 30202U 99025VK  25360.24105907  .00008416  00000+0  20479-2 0  9998", "line2": "2 30202  98.6394  97.9263 0038021  16.6305 343.6127 14.52587098984858"}}, "geometry": {"type": "Point", "coordinates": [95.17652469554302, 23.650897733647465]}}, {"type": "Feature", "properties": {"norad_id": 30205, "name": "FENGYUN 1C DEB", "group": "fengyun-1c-debris", "lat": -49.91240818735558, "lon": 122.94082385617423, "alt_km": 1029.3695606043038, "timestamp": "2025-12-27T06:41:31.201142+00:00", "meta": {"OBJECT_NAME": "FENGYUN 1C DEB", "OBJECT_ID": "1999-025VN", "EPOCH": "2025-12-26T21:08:28.877856", "MEAN_MOTION": 13.88052988, "ECCENTRICITY": 0.01214424, "INCLINATION": 98.9967, "RA_OF_ASC_NODE": 111.7085, "ARG_OF_PERICENTER": 141.6563, "MEAN_ANOMALY": 339.9362, "EPHEMERIS_TYPE": 0, "CLASSIFICATION_TYPE": "U", "NORAD_CAT_ID": 30205, "ELEMENT_SET_NO": 999, "REV_AT_EPOCH": 95834, "BSTAR": 0.00031294365, "MEAN_MOTION_DOT": 3.54e-06, "MEAN_MOTION_DDOT": 0}, "tle": {"line1": "1 30205U 99025VN  25360.88088979  .00000354  00000+0  31294-3 0  9991", "line2": "2 30205  98.9967 111.7085 0121442 141.6563 339.9362 13.88052988958349"}}, "geometry": {"type": "Point", "coordinates": [122.94082385617423, -49.91240818735558]}}, {"type": "Feature", "properties": {"norad_id": 30206, "name": "FENGYUN 1C DEB", "group": "fengyun-1c-debris", "lat": -11.926706311703501, "lon": 178.4402060912351, "alt_km": 829.1659653955376, "timestamp": "2025-12-27T06:41:31.201152+00:00", "meta": {"OBJECT_NAME": "FENGYUN 1C DEB", "OBJECT_ID": "1999-025VP", "EPOCH": "2025-12-26T23:10:38.473248", "MEAN_MOTION": 14.49217924, "ECCENTRICITY": 0.01448992, "INCLINATION": 98.2324, "RA_OF_ASC_NODE": 359.8869, "ARG_OF_PERICENTER": 352.8653, "MEAN_ANOMALY": 7.0477, "EPHEMERIS_TYPE": 0, "CLASSIFICATION_TYPE": "U", "NORAD_CAT_ID": 30206, "ELEMENT_SET_NO": 999, "REV_AT_EPOCH": 99607, "BSTAR": 0.00068745222, "MEAN_MOTION_DOT": 2.944e-05, "MEAN_MOTION_DDOT": 0}, "tle": {"line1": "1 30206U 99025VP  25360.96572307  .00002944  00000+0  68745-3 0  9992", "line2": "2 30206  98.2324 359.8869 0144899 352.8653   7.0477 14.49217924996075"}}, "geometry": {"type": "Point", "coordinates": [178.4402060912351, -11.926706311703501]}}, {"type": "Feature", "properties": {"norad_id": 30207, "name": "FENGYUN 1C DEB", "group": "fengyun-1c-debris", "lat": 76.54055424520944, "lon": -30.300811935909174, "alt_km": 770.2328017774144, "timestamp": "2025-12-27T06:41:31.201162+00:00", "meta": {"OBJECT_NAME": "FENGYUN 1C DEB", "OBJECT_ID": "1999-025VQ", "EPOCH": "2025-12-26T05:59:13.128000", "MEAN_MOTION": 13.79144476, "ECCENTRICITY": 0.026075, "INCLINATION": 98.574, "RA_OF_ASC_NODE": 109.6896, "ARG_OF_PERICENTER": 111.9279, "MEAN_ANOMALY": 280.9237, "EPHEMERIS_TYPE": 0, "CLASSIFICATION_TYPE": "U", "NORAD_CAT_ID": 30207, "ELEMENT_SET_NO": 999, "REV_AT_EPOCH": 95249, "BSTAR": 0.00020556, "MEAN_MOTION_DOT": 2.35e-06, "MEAN_MOTION_DDOT": 0}, "tle": {"line1": "1 30207U 99025VQ  25360.24945750  .00000235  00000+0  20556-3 0  9999", "line2": "2 30207  98.5740 109.6896 0260750 111.9279 280.9237 13.79144476952492"}}, "geometry": {"type": "Point", "coordinates": [-30.300811935909174, 76.54055424520944]}}]}